NORAD_CAT_ID,OBJECT_NAME,OBJECT_TYPE,EPOCH,MEAN_MOTION,ECCENTRICITY,INCLINATION,RA_OF_ASC_NODE,ARG_OF_PERICENTER,MEAN_ANOMALY,BSTAR,MEAN_MOTION_DOT,MEAN_MOTION_DDOT,TLE_LINE0,TLE_LINE1,TLE_LINE2,SEMIMAJOR_AXIS,PERIOD,APOGEE,PERIGEE,DECAYED
55951.0,STARLINK-5908,PAYLOAD,2024-07-31 14:19:20,14.9832792,0.0003155,70.0016,322.0196,270.8679,89.2119,-6.2082e-05,-8.34e-06,0.0,0 STARLINK-5908,1 55951U 23037AP  24213.59676424 -.00000834  00000-0 -62082-4 0  9994,2 55951  70.0016 322.0196 0003155 270.8679  89.2119 14.98327920 76195,6950.199,96.107,574.257,569.872,0.0
55951.0,STARLINK-5908,PAYLOAD,2024-07-31 17:31:36,14.98329984,0.0003466,70.0008,321.6829,271.3872,88.689,-3.0043e-05,-4.52e-06,0.0,0 STARLINK-5908,1 55951U 23037AP  24213.73028228 -.00000452  00000-0 -30043-4 0  9991,2 55951  70.0008 321.6829 0003466 271.3872  88.6890 14.98329984 76214,6950.193,96.107,574.467,569.649,0.0
55951.0,STARLINK-5908,PAYLOAD,2024-07-31 23:56:08,14.98329867,0.0003382,70.0008,321.011,269.0224,91.0548,6.7255e-05,7.1e-06,0.0,0 STARLINK-5908,1 55951U 23037AP  24213.99732020  .00000710  00000-0  67255-4 0  9991,2 55951  70.0008 321.0110 0003382 269.0224  91.0548 14.98329867 76592,6950.193,96.107,574.409,569.708,0.0
55951.0,STARLINK-5908,PAYLOAD,2024-08-01 11:09:04,14.98338866,0.0003265,70.0014,319.8328,271.535,88.5435,0.00015327,1.737e-05,0.0,0 STARLINK-5908,1 55951U 23037AP  24214.46463211  .00001737  00000-0  15327-3 0  9999,2 55951  70.0014 319.8328 0003265 271.5350  88.5435 14.98338866 76666,6950.165,96.106,574.3,569.761,0.0
55951.0,STARLINK-5908,PAYLOAD,2024-08-02 12:47:14,14.98320527,0.0003624,70.0006,317.1384,274.5521,85.5224,7.119e-06,-8e-08,0.0,0 STARLINK-5908,1 55951U 23037AP  24215.53280799 -.00000008  00000-0  71190-5 0  9999,2 55951  70.0006 317.1384 0003624 274.5521  85.5224 14.98320527 76828,6950.222,96.108,574.606,569.568,0.0
55951.0,STARLINK-5908,PAYLOAD,2024-08-02 14:23:22,14.98319959,0.0003629,70.0006,316.9701,274.1619,85.9125,-8.5325e-07,-1.03e-06,0.0,0 STARLINK-5908,1 55951U 23037AP  24215.59956888 -.00000103  00000-0 -85325-6 0  9997,2 55951  70.0006 316.9701 0003629 274.1619  85.9125 14.98319959 76491,6950.224,96.108,574.611,569.567,0.0
55951.0,STARLINK-5908,PAYLOAD,2024-08-02 15:59:30,14.98321038,0.0003624,70.0006,316.8018,274.4357,85.6388,1.0636e-05,3.4e-07,0.0,0 STARLINK-5908,1 55951U 23037AP  24215.66632827  .00000034  00000-0  10636-4 0  9991,2 55951  70.0006 316.8018 0003624 274.4357  85.6388 14.98321038 76509,6950.221,96.108,574.604,569.567,0.0
55951.0,STARLINK-5908,PAYLOAD,2024-08-03 00:00:10,14.98330934,0.0003731,70.0005,315.96,274.6718,85.4015,1.408e-05,7.5e-07,0.0,0 STARLINK-5908,1 55951U 23037AP  24216.00012227  .00000075  00000-0  14080-4 0  9998,2 55951  70.0005 315.9600 0003731 274.6718  85.4015 14.98330934 76899,6950.19,96.107,574.648,569.462,0.0
55951.0,STARLINK-5908,PAYLOAD,2024-08-03 14:25:22,14.98342758,0.0003582,70.0006,314.4459,274.3059,85.7691,6.5354e-05,6.87e-06,0.0,0 STARLINK-5908,1 55951U 23037AP  24216.60095206  .00000687  00000-0  65354-4 0  9991,2 55951  70.0006 314.4459 0003582 274.3059  85.7691 14.98342758 76648,6950.153,96.106,574.508,569.529,0.0
55951.0,STARLINK-5908,PAYLOAD,2024-08-03 16:01:30,14.98344694,0.0003564,70.0007,314.2777,274.299,85.7761,8.7742e-05,9.54e-06,0.0,0 STARLINK-5908,1 55951U 23037AP  24216.66770980  .00000954  00000-0  87742-4 0  9998,2 55951  70.0007 314.2777 0003564 274.2990  85.7761 14.98344694 76990,6950.147,96.106,574.489,569.535,0.0
55951.0,STARLINK-5908,PAYLOAD,2024-08-04 12:51:15,14.98330065,0.0003414,70.0008,312.0901,272.5979,87.4789,0.00017455,1.99e-05,0.0,0 STARLINK-5908,1 55951U 23037AP  24217.53559518  .00001990  00000-0  17455-3 0  9991,2 55951  70.0008 312.0901 0003414 272.5979  87.4789 14.98330065 77120,6950.193,96.107,574.43,569.685,0.0
55951.0,STARLINK-5908,PAYLOAD,2024-08-04 14:27:23,14.98330758,0.0003403,70.0007,311.9215,272.4386,87.6384,0.00017808,2.032e-05,0.0,0 STARLINK-5908,1 55951U 23037AP  24217.60235471  .00002032  00000-0  17808-3 0  9998,2 55951  70.0007 311.9215 0003403 272.4386  87.6384 14.98330758 76798,6950.191,96.107,574.421,569.69,0.0
55951.0,STARLINK-5908,PAYLOAD,2024-08-04 16:03:31,14.9833529,0.0003359,70.0008,311.7537,273.4293,86.6482,0.00022563,2.601e-05,0.0,0 STARLINK-5908,1 55951U 23037AP  24217.66911075  .00002601  00000-0  22563-3 0  9991,2 55951  70.0008 311.7537 0003359 273.4293  86.6482 14.98335290 76808,6950.177,96.107,574.376,569.707,0.0
55951.0,STARLINK-5908,PAYLOAD,2024-08-05 12:53:15,14.98342544,0.0003283,70.001,309.5651,271.8329,88.2454,6.2507e-05,6.53e-06,0.0,0 STARLINK-5908,1 55951U 23037AP  24218.53698641  .00000653  00000-0  62507-4 0  9997,2 55951  70.0010 309.5651 0003283 271.8329  88.2454 14.98342544 77270,6950.154,96.106,574.301,569.737,0.0
55951.0,STARLINK-5908,PAYLOAD,2024-08-05 16:05:31,14.98345093,0.0003202,70.0011,309.2283,270.2196,89.8596,0.00010616,1.174e-05,0.0,0 STARLINK-5908,1 55951U 23037AP  24218.67050372  .00001174  00000-0  10616-3 0  9997,2 55951  70.0011 309.2283 0003202 270.2196  89.8596 14.98345093 76955,6950.146,96.106,574.237,569.786,0.0
55951.0,STARLINK-5908,PAYLOAD,2024-08-06 04:54:36,14.98329993,0.0002091,70.0025,307.885,262.2658,97.8263,2.6796e-05,2.27e-06,0.0,0 STARLINK-5908,1 55951U 23037AP  24219.20459429  .00000227  00000-0  26796-4 0  9998,2 55951  70.0025 307.8850 0002091 262.2658  97.8263 14.98329993 77371,6950.193,96.107,573.511,570.605,0.0
55951.0,STARLINK-5908,PAYLOAD,2024-08-06 12:55:18,14.98319299,0.0003365,70.0006,307.0401,268.9183,91.1591,-0.00014163,-1.782e-05,0.0,0 STARLINK-5908,1 55951U 23037AP  24219.53840597 -.00001782  00000-0 -14163-3 0  9997,2 55951  70.0006 307.0401 0003365 268.9183  91.1591 14.98319299 77420,6950.226,96.108,574.43,569.752,0.0
55951.0,STARLINK-5908,PAYLOAD,2024-08-06 14:31:26,14.9831781,0.0003394,70.0005,306.8713,268.2511,91.826,-0.00011097,-1.416e-05,0.0,0 STARLINK-5908,1 55951U 23037AP  24219.60516650 -.00001416  00000-0 -11097-3 0  9992,2 55951  70.0005 306.8713 0003394 268.2511  91.8260 14.98317810 77092,6950.231,96.108,574.454,569.737,0.0
55951.0,STARLINK-5908,PAYLOAD,2024-08-06 16:07:34,14.98320907,0.0003361,70.0007,306.7034,268.5379,91.5395,-0.00011891,-1.511e-05,0.0,0 STARLINK-5908,1 55951U 23037AP  24219.67192513 -.00001511  00000-0 -11891-3 0  9995,2 55951  70.0007 306.7034 0003361 268.5379  91.5395 14.98320907 77107,6950.221,96.108,574.422,569.75,0.0
55951.0,STARLINK-5908,PAYLOAD,2024-08-07 04:56:38,14.9833026,0.0003651,69.9997,305.3543,270.1582,89.9158,-6.0767e-05,-8.18e-06,0.0,0 STARLINK-5908,1 55951U 23037AP  24220.20599857 -.00000818  00000-0 -60767-4 0  9994,2 55951  69.9997 305.3543 0003651 270.1582  89.9158 14.98330260 77526,6950.192,96.107,574.595,569.52,0.0
55951.0,STARLINK-5908,PAYLOAD,2024-08-07 11:21:09,14.98339036,0.0003169,70.0013,304.6841,262.3118,97.7682,5.9747e-05,6.2e-06,0.0,0 STARLINK-5908,1 55951U 23037AP  24220.47302891  .00000620  00000-0  59747-4 0  9998,2 55951  70.0013 304.6841 0003169 262.3118  97.7682 14.98339036 77566,6950.165,96.106,574.232,569.827,0.0
55951.0,STARLINK-5908,PAYLOAD,2024-08-07 12:57:17,14.9834069,0.0003171,70.0011,304.5159,261.2604,98.8196,7.5493e-05,8.08e-06,0.0,0 STARLINK-5908,1 55951U 23037AP  24220.53978767  .00000808  00000-0  75493-4 0  9990,2 55951  70.0011 304.5159 0003171 261.2604  98.8196 14.98340690 77230,6950.16,96.106,574.229,569.821,0.0
55951.0,STARLINK-5908,PAYLOAD,2024-08-07 16:09:33,14.98344128,0.0003128,70.0014,304.1803,261.5757,98.5048,7.429e-05,7.94e-06,0.0,0 STARLINK-5908,1 55951U 23037AP  24220.67330434  .00000794  00000-0  74290-4 0  9996,2 55951  70.0014 304.1803 0003128 261.5757  98.5048 14.98344128 77254,6950.149,96.106,574.188,569.84,0.0
55951.0,STARLINK-5908,PAYLOAD,2024-08-08 12:59:19,14.98323772,0.000308,70.0022,301.9928,256.3411,103.7405,0.00023689,2.734e-05,0.0,0 STARLINK-5908,1 55951U 23037AP  24221.54119470  .00002734  00000-0  23689-3 0  9999,2 55951  70.0022 301.9928 0003080 256.3411 103.7405 14.98323772 77384,6950.212,96.107,574.218,569.936,0.0
55951.0,STARLINK-5908,PAYLOAD,2024-08-08 14:35:27,14.983258,0.0003293,70.0018,301.8251,258.6591,101.4198,0.00028479,3.306e-05,0.0,0 STARLINK-5908,1 55951U 23037AP  24221.60795256  .00003306  00000-0  28479-3 0  9996,2 55951  70.0018 301.8251 0003293 258.6591 101.4198 14.98325800 77734,6950.206,96.107,574.36,569.782,0.0
55951.0,STARLINK-5908,PAYLOAD,2024-08-08 22:36:07,14.98338924,0.0003209,70.0011,300.982,267.1103,92.9688,-6.3429e-07,-1.01e-06,0.0,0 STARLINK-5908,1 55951U 23037AP  24221.94174977 -.00000101  00000-0 -63429-6 0  9993,2 55951  70.0011 300.9820 0003209 267.1103  92.9688 14.98338924 77447,6950.165,96.106,574.261,569.8,0.0
55951.0,STARLINK-5908,PAYLOAD,2024-08-09 13:01:19,14.98335539,0.0003351,70.0013,299.4678,263.4304,96.6474,-1.0199e-05,-2.15e-06,0.0,0 STARLINK-5908,1 55951U 23037AP  24222.54259138 -.00000215  00000-0 -10199-4 0  9993,2 55951  70.0013 299.4678 0003351 263.4304  96.6474 14.98335539 77535,6950.176,96.107,574.37,569.712,0.0
55951.0,STARLINK-5908,PAYLOAD,2024-08-09 14:37:27,14.9833797,0.0003263,70.0012,299.2988,261.8734,98.2055,2.2805e-06,-6.6e-07,0.0,0 STARLINK-5908,1 55951U 23037AP  24222.60934929 -.00000066  00000-0  22805-5 0  9999,2 55951  70.0012 299.2988 0003263 261.8734  98.2055 14.98337970 77889,6950.168,96.106,574.301,569.765,0.0
55951.0,STARLINK-5908,PAYLOAD,2024-08-10 05:02:40,14.98324559,0.0003054,70.0019,297.7833,254.3174,105.7648,2.4127e-05,1.95e-06,0.0,0 STARLINK-5908,1 55951U 23037AP  24223.21019541  .00000195  00000-0  24127-4 0  9991,2 55951  70.0019 297.7833 0003054 254.3174 105.7648 14.98324559 77972,6950.21,96.107,574.197,569.952,0.0
55951.0,STARLINK-5908,PAYLOAD,2024-08-10 14:39:29,14.98331675,0.0003303,70.0004,296.7733,268.057,92.021,2.8058e-06,-6e-07,0.0,0 STARLINK-5908,1 55951U 23037AP  24223.61075280 -.00000060  00000-0  28058-5 0  9997,2 55951  70.0004 296.7733 0003303 268.0570  92.0210 14.98331675 77692,6950.188,96.107,574.348,569.757,0.0
